     2.100          NAVIGATION                              RINEX VERSION / TYPE
fic2rin                                 12/18/2013 00:14:22 PGM / RUN BY / DATE
                                                            END OF HEADER
14 13 12 17 14  0  0.0  .207538250834D-03 -.113686837722D-11  .000000000000D+00
     .310000000000D+02  .108843750000D+03  .385623205612D-08 -.163806336865D+01
     .561214983463D-05  .731705944054D-02  .110529363155D-04  .515360396385D+04
     .223200000000D+06  .223517417908D-06 -.293305898008D+01  .428408384323D-07
     .972361991969D+00  .174437500000D+03 -.198652517253D+01 -.757352975363D-08
    -.165364030933D-09  .100000000000D+01  .177100000000D+04  .000000000000D+00
     .240000000000D+01  .000000000000D+00 -.884756445885D-08  .310000000000D+02
     .216006000000D+06  .400000000000D+01
15 13 12 17 14  0  0.0 -.152710359544D-03 -.204636307899D-11  .000000000000D+00
     .750000000000D+02  .858750000000D+02  .458376236067D-08 -.214852359456D+01
     .436976552010D-05  .599739223253D-02  .110864639282D-04  .515362349892D+04
     .223200000000D+06 -.242143869400D-07 -.303964234176D+01 -.577419996262D-07
     .938943373709D+00  .156500000000D+03  .206340845622D+00 -.791068665471D-08
    -.153220667970D-09  .100000000000D+01  .177100000000D+04  .000000000000D+00
     .240000000000D+01  .000000000000D+00 -.102445483208D-07  .750000000000D+02
     .216006000000D+06  .400000000000D+01
16 13 12 17 14  0  0.0 -.238554086536D-03  .125055521494D-11  .000000000000D+00
     .540000000000D+02 -.117156250000D+03  .397838000121D-08 -.493823361222D+00
    -.602938234806D-05  .721843808424D-02  .388361513615D-05  .515376927376D+04
     .223200000000D+06  .167638063431D-06 -.856794970321D+00 -.372529029846D-08
     .986806116550D+00  .314187500000D+03  .128856084630D+00 -.805212111745D-08
    -.224295057075D-09  .100000000000D+01  .177100000000D+04  .000000000000D+00
     .240000000000D+01  .000000000000D+00 -.977888703346D-08  .540000000000D+02
     .216006000000D+06  .400000000000D+01
17 13 12 17 14  0  0.0 -.508464872837D-04 -.352429196937D-11  .000000000000D+00
     .510000000000D+02 -.515312500000D+02  .419196032626D-08 -.144921486418D+01
    -.261142849922D-05  .887734547723D-02  .110175460577D-04  .515372130775D+04
     .223200000000D+06  .199303030968D-06  .176968212579D+00  .651925802231D-07
     .967583304231D+00  .168593750000D+03 -.216810082219D+01 -.761674583947D-08
     .352157525917D-09  .100000000000D+01  .177100000000D+04  .000000000000D+00
     .240000000000D+01  .000000000000D+00 -.107102096081D-07  .510000000000D+02
     .216006000000D+06  .400000000000D+01
18 13 12 17 14  0  0.0  .290960073471D-03  .216004991671D-11  .000000000000D+00
     .980000000000D+02 -.220312500000D+02  .567487923864D-08  .115719927308D+00
    -.105798244476D-05  .145970127778D-01  .683031976223D-05  .515364971924D+04
     .223200000000D+06 -.111758708954D-06  .222500130323D+01  .173225998878D-06
     .926153515429D+00  .231375000000D+03 -.206911042666D+01 -.874072122898D-08
    -.654312969047D-09  .100000000000D+01  .177100000000D+04  .000000000000D+00
     .240000000000D+01  .000000000000D+00 -.111758708954D-07  .980000000000D+02
     .216006000000D+06  .400000000000D+01
19 13 12 17 14  0  0.0 -.425995793194D-03 -.261479726760D-11  .000000000000D+00
     .230000000000D+02 -.568125000000D+02  .422089010273D-08 -.231441467483D+01
    -.314787030220D-05  .969113979954D-02  .112410634756D-04  .515377426720D+04
     .223200000000D+06  .447034835815D-07  .228261376894D+00 -.199303030968D-06
     .964723233555D+00  .165281250000D+03  .399317110966D+00 -.762424615188D-08
     .465733685392D-09  .100000000000D+01  .177100000000D+04  .000000000000D+00
     .240000000000D+01  .000000000000D+00 -.149011611938D-07  .230000000000D+02
     .216006000000D+06  .400000000000D+01
20 13 12 17 14  0  0.0  .145354308188D-03  .306954461848D-11  .000000000000D+00
     .800000000000D+02 -.270312500000D+02  .560523348047D-08  .597276884283D+00
    -.140257179737D-05  .590741098858D-02  .637024641037D-05  .515361204720D+04
     .223200000000D+06 -.800937414169D-07  .217175753661D+01  .000000000000D+00
     .927005005434D+00  .238875000000D+03  .129706706686D+01 -.856464246602D-08
    -.580381318069D-09  .100000000000D+01  .177100000000D+04  .000000000000D+00
     .240000000000D+01  .000000000000D+00 -.791624188423D-08  .800000000000D+02
     .216006000000D+06  .400000000000D+01
21 13 12 17 14  0  0.0 -.333471689373D-03 -.170530256582D-11  .000000000000D+00
     .130000000000D+02  .228750000000D+02  .575488257110D-08  .115078720512D+01
     .124983489513D-05  .207729421090D-01  .662542879581D-05  .515357907486D+04
     .223200000000D+06 -.363215804100D-06  .117833580168D+01  .111758708954D-06
     .931562916889D+00  .245312500000D+03 -.208208856835D+01 -.881858161504D-08
     .296798077117D-09  .100000000000D+01  .177100000000D+04  .000000000000D+00
     .240000000000D+01  .000000000000D+00 -.111758708954D-07  .130000000000D+02
     .216006000000D+06  .400000000000D+01
22 13 12 17 14  0  0.0  .201288610697D-03  .227373675443D-11  .000000000000D+00
     .320000000000D+02 -.261562500000D+02  .568987986348D-08 -.435802286400D+00
    -.139325857162D-05  .669590849429D-02  .662729144096D-05  .515363496590D+04
     .223200000000D+06 -.465661287308D-07  .222720453832D+01  .465661287308D-07
     .923918343376D+00  .230531250000D+03 -.205356561715D+01 -.863357390872D-08
    -.650384233971D-09  .100000000000D+01  .177100000000D+04  .000000000000D+00
     .240000000000D+01  .000000000000D+00 -.172294676304D-07  .320000000000D+02
     .216006000000D+06  .400000000000D+01
23 13 12 17 14  0  0.0  .207317061722D-04 -.329691829393D-11  .000000000000D+00
     .490000000000D+02  .859687500000D+02  .425696303388D-08 -.266818051058D+01
     .433810055256D-05  .885085936170D-02  .109169632196D-04  .515362508392D+04
     .223200000000D+06 -.614672899246D-07 -.299543758900D+01 -.875443220139D-07
     .953963330642D+00  .165468750000D+03 -.280940584991D+01 -.769674917193D-08
    -.125005206969D-09  .100000000000D+01  .177100000000D+04  .000000000000D+00
     .240000000000D+01  .000000000000D+00 -.200234353542D-07  .490000000000D+02
     .216006000000D+06  .400000000000D+01
24 13 12 17 14  0  0.0 -.199689529836D-04 -.682121026330D-12  .000000000000D+00
     .106000000000D+03  .965000000000D+02  .463376444346D-08  .309731990001D+01
     .512227416039D-05  .152518623509D-02  .169500708580D-05  .515364060402D+04
     .223200000000D+06  .204890966415D-07 -.196878935939D+01 -.465661287308D-07
     .957792133967D+00  .345968750000D+03  .865785625961D-01 -.840820737844D-08
     .331442377334D-09  .100000000000D+01  .177100000000D+04  .000000000000D+00
     .340000000000D+01  .000000000000D+00  .279396772385D-08  .106000000000D+03
     .216006000000D+06  .400000000000D+01
25 13 12 17 14  0  0.0  .298535451293D-05  .272848410532D-11  .000000000000D+00
     .310000000000D+02 -.114843750000D+03  .430089343519D-08  .819511808185D+00
    -.614114105701D-05  .287159509026D-02  .348873436451D-05  .515368490219D+04
     .223200000000D+06  .167638063431D-07 -.915872114001D+00  .596046447754D-07
     .974895587606D+00  .320250000000D+03  .641333200593D+00 -.820855620503D-08
    -.265368196508D-09  .100000000000D+01  .177100000000D+04  .000000000000D+00
     .240000000000D+01  .000000000000D+00  .558793544769D-08  .310000000000D+02
     .216006000000D+06  .400000000000D+01
27 13 12 17 14  0  0.0 -.862451270223D-05 -.272848410532D-11  .000000000000D+00
     .700000000000D+02 -.677812500000D+02  .425410577201D-08 -.170086414354D+01
    -.357441604137D-05  .524433329701D-03  .112876296043D-04  .515367460632D+04
     .223200000000D+06  .204890966415D-07  .132470355408D+00  .186264514923D-08
     .962256720026D+00  .163125000000D+03  .403700942485D+00 -.773103631441D-08
     .331442377334D-09  .100000000000D+01  .177100000000D+04  .000000000000D+00
     .240000000000D+01  .000000000000D+00  .186264514923D-08  .700000000000D+02
     .216006000000D+06  .400000000000D+01
28 13 12 17 14  0  0.0  .317306257784D-03  .295585778076D-11  .000000000000D+00
     .410000000000D+02 -.991875000000D+02  .409981363084D-08 -.630586997908D+00
    -.507198274136D-05  .192123614252D-01  .480376183987D-05  .515365954208D+04
     .223200000000D+06 -.229105353355D-06 -.850808393550D+00  .165775418282D-06
     .985298930570D+00  .304968750000D+03 -.174563451017D+01 -.829891711178D-08
    -.130719730716D-09  .100000000000D+01  .177100000000D+04  .000000000000D+00
     .240000000000D+01  .000000000000D+00 -.107102096081D-07  .410000000000D+02
     .216006000000D+06  .400000000000D+01
29 13 12 17 14  0  0.0  .495936721563D-03  .306954461848D-11  .000000000000D+00
     .150000000000D+02 -.644062500000D+02  .416160191885D-08  .146468348492D+01
    -.329129397869D-05  .151267088950D-02  .119321048260D-04  .515379147530D+04
     .223200000000D+06  .372529029846D-07  .185886439145D+00  .000000000000D+00
     .968269743430D+00  .156468750000D+03 -.100000234129D+01 -.764317551180D-08
     .400730977768D-09  .100000000000D+01  .177100000000D+04  .000000000000D+00
     .240000000000D+01  .000000000000D+00 -.931322574615D-08  .150000000000D+02
     .216006000000D+06  .400000000000D+01
31 13 12 17 14  0  0.0  .331245362759D-03  .454747350886D-12  .000000000000D+00
     .980000000000D+02  .938437500000D+02  .411981446395D-08  .203746349582D+01
     .495463609695D-05  .820296746679D-02  .192783772945D-05  .515373749352D+04
     .223200000000D+06  .447034835815D-07 -.193139733713D+01  .409781932831D-07
     .979291565733D+00  .349031250000D+03 -.704988436684D+00 -.808283668259D-08
     .214651798252D-09  .100000000000D+01  .177100000000D+04  .000000000000D+00
     .240000000000D+01  .000000000000D+00 -.130385160446D-07  .980000000000D+02
     .216006000000D+06  .400000000000D+01
